[{"OBJECT_NAME":"STARLINK-31237","OBJECT_ID":"2024-019C","EPOCH":"2026-03-09T13:05:07.090080","MEAN_MOTION":15.27552372,"ECCENTRICITY":0.00013761,"INCLINATION":43.0013,"RA_OF_ASC_NODE":249.4691,"ARG_OF_PERICENTER":282.9915,"MEAN_ANOMALY":77.0783,"EPHEMERIS_TYPE":0,"CLASSIFICATION_TYPE":"U","NORAD_CAT_ID":58855,"ELEMENT_SET_NO":999,"REV_AT_EPOCH":11906,"BSTAR":-8.3906115e-5,"MEAN_MOTION_DOT":-2.568e-5,"MEAN_MOTION_DDOT":0},{"OBJECT_NAME":"CZ-4C R\/B","OBJECT_ID":"2023-123B","EPOCH":"2026-03-09T21:44:40.426944","MEAN_MOTION":15.36684191,"ECCENTRICITY":0.00627803,"INCLINATION":97.9677,"RA_OF_ASC_NODE":50.672,"ARG_OF_PERICENTER":67.0775,"MEAN_ANOMALY":293.7077,"EPHEMERIS_TYPE":0,"CLASSIFICATION_TYPE":"U","NORAD_CAT_ID":57655,"ELEMENT_SET_NO":999,"REV_AT_EPOCH":14181,"BSTAR":0.00052203987,"MEAN_MOTION_DOT":0.00019917,"MEAN_MOTION_DDOT":0}]
